{"fetched_at":"2026-07-07T18:29:08.171Z","source":"https://celestrak.org/NORAD/elements/gp.php?GROUP=planet&FORMAT=JSON","constellation":"superdove","records":[{"OBJECT_NAME":"FLOCK 4H-33","OBJECT_ID":"2025-276BY","EPOCH":"2026-07-07T04:55:07.021632","CLASSIFICATION_TYPE":"U","MEAN_MOTION":15.21126946,"ECCENTRICITY":0.0001993,"INCLINATION":97.421,"RA_OF_ASC_NODE":261.8099,"ARG_OF_PERICENTER":182.7003,"MEAN_ANOMALY":177.4222,"EPHEMERIS_TYPE":0,"NORAD_CAT_ID":66736,"ELEMENT_SET_NO":999,"REV_AT_EPOCH":3348,"BSTAR":0.00021862,"MEAN_MOTION_DOT":0.00004797,"MEAN_MOTION_DDOT":0},{"OBJECT_NAME":"FLOCK 4H-34","OBJECT_ID":"2025-276BZ","EPOCH":"2026-07-07T04:33:40.144608","CLASSIFICATION_TYPE":"U","MEAN_MOTION":15.2076617,"ECCENTRICITY":0.000173,"INCLINATION":97.4224,"RA_OF_ASC_NODE":261.7214,"ARG_OF_PERICENTER":194.1505,"MEAN_ANOMALY":165.9682,"EPHEMERIS_TYPE":0,"NORAD_CAT_ID":66737,"ELEMENT_SET_NO":999,"REV_AT_EPOCH":3272,"BSTAR":0.00023113,"MEAN_MOTION_DOT":0.00005022,"MEAN_MOTION_DDOT":0},{"OBJECT_NAME":"FLOCK 4H-35","OBJECT_ID":"2025-276CA","EPOCH":"2026-07-07T10:18:35.765568","CLASSIFICATION_TYPE":"U","MEAN_MOTION":15.20887655,"ECCENTRICITY":0.0001901,"INCLINATION":97.4186,"RA_OF_ASC_NODE":261.8977,"ARG_OF_PERICENTER":170.4526,"MEAN_ANOMALY":189.6746,"EPHEMERIS_TYPE":0,"NORAD_CAT_ID":66738,"ELEMENT_SET_NO":999,"REV_AT_EPOCH":3280,"BSTAR":0.00022166,"MEAN_MOTION_DOT":0.0000483,"MEAN_MOTION_DDOT":0},{"OBJECT_NAME":"FLOCK 4H-36","OBJECT_ID":"2025-276CB","EPOCH":"2026-07-07T04:53:20.823072","CLASSIFICATION_TYPE":"U","MEAN_MOTION":15.20653155,"ECCENTRICITY":0.000161,"INCLINATION":97.4234,"RA_OF_ASC_NODE":261.7281,"ARG_OF_PERICENTER":212.0478,"MEAN_ANOMALY":148.066,"EPHEMERIS_TYPE":0,"NORAD_CAT_ID":66739,"ELEMENT_SET_NO":999,"REV_AT_EPOCH":3347,"BSTAR":0.00020382,"MEAN_MOTION_DOT":0.00004405,"MEAN_MOTION_DDOT":0}]}
