FLOCK 4H-33             
1 66736U 25276BY  26188.20494239  .00004797  00000+0  21862-3 0  9996
2 66736  97.4210 261.8099 0001993 182.7003 177.4222 15.21126946 33481
FLOCK 4H-34             
1 66737U 25276BZ  26188.19004798  .00005022  00000+0  23113-3 0  9995
2 66737  97.4224 261.7214 0001729 194.1505 165.9682 15.20766170 32722
FLOCK 4H-35             
1 66738U 25276CA  26188.42958063  .00004830  00000+0  22166-3 0  9998
2 66738  97.4186 261.8977 0001901 170.4526 189.6746 15.20887655 32804
FLOCK 4H-36             
1 66739U 25276CB  26188.20371324  .00004405  00000+0  20382-3 0  9990
2 66739  97.4234 261.7281 0001610 212.0478 148.0660 15.20653155 33476
